[{"OBJECT_NAME":"TEN-KOH","OBJECT_ID":"2018-084G","EPOCH":"2026-03-09T23:23:52.653408","MEAN_MOTION":15.02465351,"ECCENTRICITY":0.0011972,"INCLINATION":98.0798,"RA_OF_ASC_NODE":257.1735,"ARG_OF_PERICENTER":91.8355,"MEAN_ANOMALY":268.424,"EPHEMERIS_TYPE":0,"CLASSIFICATION_TYPE":"U","NORAD_CAT_ID":43677,"ELEMENT_SET_NO":999,"REV_AT_EPOCH":40126,"BSTAR":0.00025918134,"MEAN_MOTION_DOT":3.377e-5,"MEAN_MOTION_DDOT":0},{"OBJECT_NAME":"STARLINK-34544","OBJECT_ID":"2025-152Z","EPOCH":"2026-03-09T13:49:52.320000","MEAN_MOTION":15.05666765,"ECCENTRICITY":0.000241,"INCLINATION":97.6018,"RA_OF_ASC_NODE":285.4458,"ARG_OF_PERICENTER":90.4646,"MEAN_ANOMALY":269.6857,"EPHEMERIS_TYPE":0,"CLASSIFICATION_TYPE":"U","NORAD_CAT_ID":64865,"ELEMENT_SET_NO":999,"REV_AT_EPOCH":3540,"BSTAR":0.00022307,"MEAN_MOTION_DOT":3.161e-5,"MEAN_MOTION_DDOT":0}]
